EUTELSAT 21B            
1 38992U 12062B   25349.99009388  .00000153  00000+0  00000+0 0  9998
2 38992   0.0689  13.2528 0003454 261.9959 187.6851  1.00273936 47990
EUTELSAT 70B            
1 39020U 12069A   25350.21365909 -.00000020  00000+0  00000+0 0  9993
2 39020   0.0609 354.2385 0004314 255.7231 342.5632  1.00271067 47671
EUTELSAT 117 WEST A     
1 39122U 13012A   25350.36408220  .00000010  00000+0  00000+0 0  9993
2 39122   0.0232  37.0984 0002756 232.4259 189.9985  1.00272564 46606
EUTELSAT 7B             
1 39163U 13022A   25350.27259279  .00000072  00000+0  00000+0 0  9995
2 39163   0.0659 350.5927 0004516 328.5889 231.1412  1.00274576 46112
EXPRESS-AT1             
1 39612U 14010A   25350.13959484  .00000102  00000+0  00000+0 0  9996
2 39612   0.0153 301.1938 0000544 188.1524  61.9508  1.00270589 42983
EXPRESS-AT2             
1 39613U 14010B   25350.69766854 -.00000257  00000+0  00000+0 0  9997
2 39613   0.0166 310.1218 0001187 353.6049 172.8753  1.00273031 42679
EUTELSAT 3B             
1 39773U 14030A   25350.27181279  .00000043  00000+0  00000+0 0  9994
2 39773   0.0604 357.0496 0004304 234.3400 314.7162  1.00271697 42230
EUTELSAT 115 WEST B     
1 40425U 15010B   25349.35253029 -.00000003  00000+0  00000+0 0  9996
2 40425   0.0426 166.1328 0000161  67.8489 222.2908  1.00270198 39551
